KZ-11 R/B               
1 69628U 26138H   26190.98922565  .00827038  96785-5  83580-3 0  9990
2 69628  55.1535 180.9205 0394736 136.3829 226.9134 15.38572017  3443
CENTISPACE-1 GROUP 05 O*
1 69636U 26138J   26190.73346690 -.00000351  00000+0 -10012-3 0  9993
2 69636  55.1383 197.8655 0009229 332.7035  27.3454 14.15843581  3180
VICTUS HAZE PUMA        
1 69646U 26142A   26191.31061230  .00002680  00000+0  12370-3 0  9992
2 69646  97.4474  88.6706 0025114 284.0959  75.7486 15.20826401  3181
HOKUSHIN-1              
1 69648U 98067YH  26191.00923923  .00017106  00000+0  29806-3 0  9992
2 69648  51.6307 186.9666 0006117 311.0804  48.9656 15.50832256  3199
STARLINK-37656          
1 69649U 26143A   26191.25002315 -.00017639  00000+0 -32327-3 0  9994
2 69649  97.2856 235.0862 0000843  96.1402 303.9371 15.49199516  4163
STARLINK-37646          
1 69650U 26143B   26191.25002315 -.02104081  00000+0 -31856-1 0  9990
2 69650  97.2844 235.2544 0001215  62.0215   1.5074 15.57767691  4164
STARLINK-37749          
1 69651U 26143C   26191.25002315 -.02436783  00000+0 -42595-1 0  9990
2 69651  97.2851 235.2450 0001215  79.1763 324.1990 15.54438303  4169
STARLINK-37819          
1 69652U 26143D   26191.25002315 -.02796557  00000+0 -48946-1 0  9995
2 69652  97.2850 235.2125 0001005  94.5632 245.4811 15.54306712  4166
STARLINK-37729          
1 69653U 26143E   26191.25002315  .00034460  00000+0  16561-3 0  9990
2 69653  97.2831 235.3525 0001003 188.7086 113.9551 15.82619057  4168
STARLINK-37838          
1 69654U 26143F   26191.25002315 -.02558395  00000+0 -36561-1 0  9993
2 69654  97.2851 235.2748 0001459  65.2669  50.7690 15.59993338  4161
STARLINK-37884          
1 69655U 26143G   26191.25002315 -.00025701  00000+0 -47221-3 0  9999
2 69655  97.2855 235.1980 0001249  69.8926 231.6436 15.49203158  4167
STARLINK-37876          
1 69656U 26143H   26191.25002315 -.02533966  00000+0 -38299-1 0  9992
2 69656  97.2854 235.2781 0001583  57.9095  65.0543 15.58485566  4076
STARLINK-37784          
1 69657U 26143J   26191.25002315 -.02777031  00000+0 -53821-1 0  9994
2 69657  97.2855 235.2164 0001513  79.7366 262.0049 15.51467553  4078
STARLINK-37851          
1 69658U 26143K   26191.25002315 -.02820934  00000+0 -45099-1 0  9994
2 69658  97.2854 235.2717 0001870  67.6938  52.9803 15.56772275  4067
STARLINK-37229          
1 69659U 26143L   26191.25002315 -.02533992  00000+0 -45106-1 0  9999
2 69659  97.2850 235.2374 0001170  83.5731 300.7187 15.53477236  4104
STARLINK-37556          
1 69660U 26143M   26191.25002315 -.02550520  00000+0 -40688-1 0  9997
2 69660  97.2856 235.2533 0001486  43.9036  30.1234 15.57084815  4105
STARLINK-37867          
1 69661U 26143N   26191.25002315 -.02796883  00000+0 -44786-1 0  9995
2 69661  97.2851 235.2722 0002150  69.6227  49.8666 15.56693338  4074
STARLINK-37852          
1 69662U 26143P   26191.25002315 -.03214767  00000+0 -59160-1 0  9995
2 69662  97.2853 235.2062 0001612  56.6418 260.2434 15.52835802  4076
STARLINK-37554          
1 69663U 26143Q   26191.25002315 -.02290767  00000+0 -39073-1 0  9990
2 69663  97.2854 235.2563 0001606  68.5953   1.4710 15.54859308  4108
STARLINK-37830          
1 69664U 26143R   26191.25002315 -.01539301  00000+0 -29406-1 0  9999
2 69664  97.2853 235.2262 0001792  64.5131 294.0719 15.50961576  4065
STARLINK-37837          
1 69665U 26143S   26191.25002315 -.00753886  00000+0 -11382-1 0  9999
2 69665  97.2851 235.2728 0001210  66.1486  45.8660 15.57232135  4074
STARLINK-37943          
1 69666U 26143T   26191.25002315 -.03373672  00000+0 -62280-1 0  9997
2 69666  97.2851 235.2219 0001696  65.8571 293.8024 15.52941950  4075
STARLINK-37941          
1 69667U 26143U   26191.25002315 -.02737253  00000+0 -47368-1 0  9996
2 69667  97.2860 235.2483 0001643  74.9736 349.7917 15.54524621  4071
STARLINK-37930          
1 69668U 26143V   26191.25002315 -.02509152  00000+0 -40191-1 0  9999
2 69668  97.2855 235.2508 0001107  93.7010 323.6853 15.56912359  4063
STARLINK-37945          
1 69669U 26143W   26191.25002315 -.02505715  00000+0 -40293-1 0  9994
2 69669  97.2853 235.2796 0001837  69.6228  59.9516 15.56793895  4072
STARLINK-37948          
1 69670U 26143X   26191.25002315 -.00028407  00000+0 -52228-3 0  9995
2 69670  97.2860 235.1741 0000880  85.6739 155.8385 15.49203353  4070
STARLINK-37949          
1 69671U 26143Y   26191.25002315 -.00017941  00000+0 -32934-3 0  9999
2 69671  97.2853 235.2304 0000976  55.0452 322.5049 15.49156719  4071
STARLINK-37946          
1 69672U 26143Z   26191.25002315 -.02425686  00000+0 -44816-1 0  9991
2 69672  97.2851 235.2640 0001808  55.0105  35.4012 15.52898117  4072
TJS-26A                 
1 69674U 26144A   26191.29713348 -.00000335  00000+0  00000+0 0  9995
2 69674   6.9573 323.2278 0003530 344.3004 195.1636  1.00265726   178
CZ-7A R/B               
1 69675U 26144B   26190.62275063  .00517555 -11785-4  60840-3 0  9995
2 69675  19.4609 317.6315 7144259 191.9602 131.7559  2.53024047   424
