OBJECT_NAME,OBJECT_ID,EPOCH,MEAN_MOTION,ECCENTRICITY,INCLINATION,RA_OF_ASC_NODE,ARG_OF_PERICENTER,MEAN_ANOMALY,EPHEMERIS_TYPE,CLASSIFICATION_TYPE,NORAD_CAT_ID,ELEMENT_SET_NO,REV_AT_EPOCH,BSTAR,MEAN_MOTION_DOT,MEAN_MOTION_DDOT
KZ-11 R/B,2026-138H,2026-07-09T23:44:29.096160,15.38572017,.03947362,55.1535,180.9205,136.3829,226.9134,0,U,69628,999,344,.83579593E-3,.827038E-2,.9678529E-5
CENTISPACE-1 GROUP 05 OBJECT J,2026-138J,2026-07-09T17:36:11.540160,14.15843581,.0009229,55.1383,197.8655,332.7035,27.3454,0,U,69636,999,318,-.10011879E-3,-.351E-5,0
VICTUS HAZE PUMA,2026-142A,2026-07-10T07:27:16.902720,15.20826401,.00251147,97.4474,88.6706,284.0959,75.7486,0,U,69646,999,318,.12370142E-3,.268E-4,0
HOKUSHIN-1,1998-067YH,2026-07-10T00:13:18.269472,15.50832256,.00061174,51.6307,186.9666,311.0804,48.9656,0,U,69648,999,319,.29806409E-3,.17106E-3,0
STARLINK-37656,2026-143A,2026-07-10T06:00:02.000160,15.49199516,.00008432,97.2856,235.0862,96.1402,303.9371,0,U,69649,999,416,-.32327473E-3,-.17639E-3,0
STARLINK-37646,2026-143B,2026-07-10T06:00:02.000160,15.57767691,.00012158,97.2844,235.2544,62.0215,1.5074,0,U,69650,999,416,-.31856032E-1,-.2104081E-1,0
STARLINK-37749,2026-143C,2026-07-10T06:00:02.000160,15.54438303,.00012159,97.2851,235.2450,79.1763,324.1990,0,U,69651,999,416,-.42595377E-1,-.2436783E-1,0
STARLINK-37819,2026-143D,2026-07-10T06:00:02.000160,15.54306712,.00010059,97.2850,235.2125,94.5632,245.4811,0,U,69652,999,416,-.48945688E-1,-.2796557E-1,0
STARLINK-37729,2026-143E,2026-07-10T06:00:02.000160,15.82619057,.00010033,97.2831,235.3525,188.7086,113.9551,0,U,69653,999,416,.16561061E-3,.3446E-3,0
STARLINK-37838,2026-143F,2026-07-10T06:00:02.000160,15.59993338,.00014594,97.2851,235.2748,65.2669,50.7690,0,U,69654,999,416,-.36560942E-1,-.2558395E-1,0
STARLINK-37884,2026-143G,2026-07-10T06:00:02.000160,15.49203158,.0001249,97.2855,235.1980,69.8926,231.6436,0,U,69655,999,416,-.47220634E-3,-.25701E-3,0
STARLINK-37876,2026-143H,2026-07-10T06:00:02.000160,15.58485566,.00015838,97.2854,235.2781,57.9095,65.0543,0,U,69656,999,407,-.3829923E-1,-.2533966E-1,0
STARLINK-37784,2026-143J,2026-07-10T06:00:02.000160,15.51467553,.00015138,97.2855,235.2164,79.7366,262.0049,0,U,69657,999,407,-.53821236E-1,-.2777031E-1,0
STARLINK-37851,2026-143K,2026-07-10T06:00:02.000160,15.56772275,.00018703,97.2854,235.2717,67.6938,52.9803,0,U,69658,999,406,-.4509915E-1,-.2820934E-1,0
STARLINK-37229,2026-143L,2026-07-10T06:00:02.000160,15.53477236,.000117,97.2850,235.2374,83.5731,300.7187,0,U,69659,999,410,-.4510612E-1,-.2533992E-1,0
STARLINK-37556,2026-143M,2026-07-10T06:00:02.000160,15.57084815,.00014869,97.2856,235.2533,43.9036,30.1234,0,U,69660,999,410,-.4068761E-1,-.255052E-1,0
STARLINK-37867,2026-143N,2026-07-10T06:00:02.000160,15.56693338,.00021509,97.2851,235.2722,69.6227,49.8666,0,U,69661,999,407,-.44786048E-1,-.2796883E-1,0
STARLINK-37852,2026-143P,2026-07-10T06:00:02.000160,15.52835802,.00016124,97.2853,235.2062,56.6418,260.2434,0,U,69662,999,407,-.59160115E-1,-.3214767E-1,0
STARLINK-37554,2026-143Q,2026-07-10T06:00:02.000160,15.54859308,.00016069,97.2854,235.2563,68.5953,1.4710,0,U,69663,999,410,-.390725E-1,-.2290767E-1,0
STARLINK-37830,2026-143R,2026-07-10T06:00:02.000160,15.50961576,.00017926,97.2853,235.2262,64.5131,294.0719,0,U,69664,999,406,-.29406244E-1,-.1539301E-1,0
STARLINK-37837,2026-143S,2026-07-10T06:00:02.000160,15.57232135,.00012101,97.2851,235.2728,66.1486,45.8660,0,U,69665,999,407,-.11382E-1,-.753886E-2,0
STARLINK-37943,2026-143T,2026-07-10T06:00:02.000160,15.52941950,.00016966,97.2851,235.2219,65.8571,293.8024,0,U,69666,999,407,-.6228022E-1,-.3373672E-1,0
STARLINK-37941,2026-143U,2026-07-10T06:00:02.000160,15.54524621,.00016438,97.2860,235.2483,74.9736,349.7917,0,U,69667,999,407,-.47368352E-1,-.2737253E-1,0
STARLINK-37930,2026-143V,2026-07-10T06:00:02.000160,15.56912359,.00011072,97.2855,235.2508,93.7010,323.6853,0,U,69668,999,406,-.40190898E-1,-.2509152E-1,0
STARLINK-37945,2026-143W,2026-07-10T06:00:02.000160,15.56793895,.00018377,97.2853,235.2796,69.6228,59.9516,0,U,69669,999,407,-.40292805E-1,-.2505715E-1,0
STARLINK-37948,2026-143X,2026-07-10T06:00:02.000160,15.49203353,.00008803,97.2860,235.1741,85.6739,155.8385,0,U,69670,999,407,-.52228135E-3,-.28407E-3,0
STARLINK-37949,2026-143Y,2026-07-10T06:00:02.000160,15.49156719,.00009762,97.2853,235.2304,55.0452,322.5049,0,U,69671,999,407,-.32934373E-3,-.17941E-3,0
STARLINK-37946,2026-143Z,2026-07-10T06:00:02.000160,15.52898117,.00018084,97.2851,235.2640,55.0105,35.4012,0,U,69672,999,407,-.44816327E-1,-.2425686E-1,0
TJS-26A,2026-144A,2026-07-10T07:07:52.332672,1.00265726,.00035308,6.9573,323.2278,344.3004,195.1636,0,U,69674,999,17,0,-.335E-5,0
CZ-7A R/B,2026-144B,2026-07-09T14:56:45.654432,2.53024047,.71442594,19.4609,317.6315,191.9602,131.7559,0,U,69675,999,42,.60839934E-3,.517555E-2,-.11785323E-4
